{
  "norad_id": 57174,
  "name": "2023-091J",
  "history": [
    {
      "epoch": "2026-03-28T22:25:13.712736Z",
      "apogee_km": 536.2520936000838,
      "perigee_km": 515.6741470274837,
      "latitude_deg": 1.6556557329053779e-06,
      "longitude_deg": -20.484748777868866,
      "height_km": 525.2594000911042,
      "semi_major_axis_km": 6904.100120313784,
      "eccentricity": 0.00149027,
      "inclination_deg": 97.5155,
      "raan_deg": 142.1699,
      "arg_perigee_deg": 68.6418,
      "mean_anomaly_deg": 291.6402,
      "mean_motion_rev_day": 15.13359617
    },
    {
      "epoch": "2026-03-29T04:46:04.731168Z",
      "apogee_km": 536.2331317023054,
      "perigee_km": 515.6699943262247,
      "latitude_deg": -5.8257715307078714e-05,
      "longitude_deg": -115.6972004142014,
      "height_km": 525.1119796670364,
      "semi_major_axis_km": 6904.088563014265,
      "eccentricity": 0.0014892,
      "inclination_deg": 97.5154,
      "raan_deg": 142.4307,
      "arg_perigee_deg": 67.8085,
      "mean_anomaly_deg": 292.4724,
      "mean_motion_rev_day": 15.13363417
    },
    {
      "epoch": "2026-03-30T04:34:15.725856Z",
      "apogee_km": 536.1557342373872,
      "perigee_km": 515.6865826092944,
      "latitude_deg": 3.172782839307021e-05,
      "longitude_deg": -112.74267948797254,
      "height_km": 524.5999490938971,
      "semi_major_axis_km": 6904.0581584233405,
      "eccentricity": 0.0014824,
      "inclination_deg": 97.515,
      "raan_deg": 143.4086,
      "arg_perigee_deg": 64.7473,
      "mean_anomaly_deg": 295.5293,
      "mean_motion_rev_day": 15.13373414
    }
  ]
}